<?xml version="1.0" encoding="UTF-8"?>
<ndm xmlns:xsi="http://www.w3.org/2001/XMLSchema-instance" xsi:noNamespaceSchemaLocation="https://sanaregistry.org/r/ndmxml_unqualified/ndmxml-2.0.0-master-2.0.xsd">
<omm id="CCSDS_OMM_VERS" version="2.0">
<header><CREATION_DATE/><ORIGINATOR/></header><body><segment><metadata><OBJECT_NAME>ONEWEB-0350</OBJECT_NAME><OBJECT_ID>2021-083AE</OBJECT_ID><CENTER_NAME>EARTH</CENTER_NAME><REF_FRAME>TEME</REF_FRAME><TIME_SYSTEM>UTC</TIME_SYSTEM><MEAN_ELEMENT_THEORY>SGP4</MEAN_ELEMENT_THEORY></metadata><data><meanElements><EPOCH>2025-02-25T22:24:32.951808</EPOCH><MEAN_MOTION>13.13470245</MEAN_MOTION><ECCENTRICITY>.0001742</ECCENTRICITY><INCLINATION>87.8891</INCLINATION><RA_OF_ASC_NODE>54.8895</RA_OF_ASC_NODE><ARG_OF_PERICENTER>77.5537</ARG_OF_PERICENTER><MEAN_ANOMALY>282.5787</MEAN_ANOMALY></meanElements><tleParameters><EPHEMERIS_TYPE>0</EPHEMERIS_TYPE><CLASSIFICATION_TYPE>U</CLASSIFICATION_TYPE><NORAD_CAT_ID>49214</NORAD_CAT_ID><ELEMENT_SET_NO>999</ELEMENT_SET_NO><REV_AT_EPOCH>16841</REV_AT_EPOCH><BSTAR>-.61921E-3</BSTAR><MEAN_MOTION_DOT>-.213E-5</MEAN_MOTION_DOT><MEAN_MOTION_DDOT>0</MEAN_MOTION_DDOT></tleParameters></data></segment></body></omm>
<omm id="CCSDS_OMM_VERS" version="2.0">
<header><CREATION_DATE/><ORIGINATOR/></header><body><segment><metadata><OBJECT_NAME>ONEWEB-0351</OBJECT_NAME><OBJECT_ID>2021-083AF</OBJECT_ID><CENTER_NAME>EARTH</CENTER_NAME><REF_FRAME>TEME</REF_FRAME><TIME_SYSTEM>UTC</TIME_SYSTEM><MEAN_ELEMENT_THEORY>SGP4</MEAN_ELEMENT_THEORY></metadata><data><meanElements><EPOCH>2025-02-25T21:36:41.897088</EPOCH><MEAN_MOTION>13.20769854</MEAN_MOTION><ECCENTRICITY>.0002692</ECCENTRICITY><INCLINATION>87.9307</INCLINATION><RA_OF_ASC_NODE>9.2088</RA_OF_ASC_NODE><ARG_OF_PERICENTER>77.4235</ARG_OF_PERICENTER><MEAN_ANOMALY>282.7199</MEAN_ANOMALY></meanElements><tleParameters><EPHEMERIS_TYPE>0</EPHEMERIS_TYPE><CLASSIFICATION_TYPE>U</CLASSIFICATION_TYPE><NORAD_CAT_ID>49215</NORAD_CAT_ID><ELEMENT_SET_NO>999</ELEMENT_SET_NO><REV_AT_EPOCH>17390</REV_AT_EPOCH><BSTAR>-.40585E-3</BSTAR><MEAN_MOTION_DOT>-.152E-5</MEAN_MOTION_DOT><MEAN_MOTION_DDOT>0</MEAN_MOTION_DDOT></tleParameters></data></segment></body></omm>
<omm id="CCSDS_OMM_VERS" version="2.0">
<header><CREATION_DATE/><ORIGINATOR/></header><body><segment><metadata><OBJECT_NAME>ONEWEB-0352</OBJECT_NAME><OBJECT_ID>2021-083AG</OBJECT_ID><CENTER_NAME>EARTH</CENTER_NAME><REF_FRAME>TEME</REF_FRAME><TIME_SYSTEM>UTC</TIME_SYSTEM><MEAN_ELEMENT_THEORY>SGP4</MEAN_ELEMENT_THEORY></metadata><data><meanElements><EPOCH>2025-02-25T21:57:06.632640</EPOCH><MEAN_MOTION>13.13471931</MEAN_MOTION><ECCENTRICITY>.0002273</ECCENTRICITY><INCLINATION>87.8895</INCLINATION><RA_OF_ASC_NODE>54.9315</RA_OF_ASC_NODE><ARG_OF_PERICENTER>83.2128</ARG_OF_PERICENTER><MEAN_ANOMALY>276.9260</MEAN_ANOMALY></meanElements><tleParameters><EPHEMERIS_TYPE>0</EPHEMERIS_TYPE><CLASSIFICATION_TYPE>U</CLASSIFICATION_TYPE><NORAD_CAT_ID>49216</NORAD_CAT_ID><ELEMENT_SET_NO>999</ELEMENT_SET_NO><REV_AT_EPOCH>16980</REV_AT_EPOCH><BSTAR>.69594E-3</BSTAR><MEAN_MOTION_DOT>.267E-5</MEAN_MOTION_DOT><MEAN_MOTION_DDOT>0</MEAN_MOTION_DDOT></tleParameters></data></segment></body></omm>
<omm id="CCSDS_OMM_VERS" version="2.0">
<header><CREATION_DATE/><ORIGINATOR/></header><body><segment><metadata><OBJECT_NAME>ONEWEB-0355</OBJECT_NAME><OBJECT_ID>2021-083AJ</OBJECT_ID><CENTER_NAME>EARTH</CENTER_NAME><REF_FRAME>TEME</REF_FRAME><TIME_SYSTEM>UTC</TIME_SYSTEM><MEAN_ELEMENT_THEORY>SGP4</MEAN_ELEMENT_THEORY></metadata><data><meanElements><EPOCH>2025-02-25T22:40:32.883456</EPOCH><MEAN_MOTION>13.13470143</MEAN_MOTION><ECCENTRICITY>.0001963</ECCENTRICITY><INCLINATION>87.8892</INCLINATION><RA_OF_ASC_NODE>54.9243</RA_OF_ASC_NODE><ARG_OF_PERICENTER>81.9576</ARG_OF_PERICENTER><MEAN_ANOMALY>278.1775</MEAN_ANOMALY></meanElements><tleParameters><EPHEMERIS_TYPE>0</EPHEMERIS_TYPE><CLASSIFICATION_TYPE>U</CLASSIFICATION_TYPE><NORAD_CAT_ID>49218</NORAD_CAT_ID><ELEMENT_SET_NO>999</ELEMENT_SET_NO><REV_AT_EPOCH>16838</REV_AT_EPOCH><BSTAR>-.60919E-3</BSTAR><MEAN_MOTION_DOT>-.21E-5</MEAN_MOTION_DOT><MEAN_MOTION_DDOT>0</MEAN_MOTION_DDOT></tleParameters></data></segment></body></omm>
<omm id="CCSDS_OMM_VERS" version="2.0">
<header><CREATION_DATE/><ORIGINATOR/></header><body><segment><metadata><OBJECT_NAME>ONEWEB-0357</OBJECT_NAME><OBJECT_ID>2021-083AK</OBJECT_ID><CENTER_NAME>EARTH</CENTER_NAME><REF_FRAME>TEME</REF_FRAME><TIME_SYSTEM>UTC</TIME_SYSTEM><MEAN_ELEMENT_THEORY>SGP4</MEAN_ELEMENT_THEORY></metadata><data><meanElements><EPOCH>2025-02-25T22:08:44.219328</EPOCH><MEAN_MOTION>13.20771495</MEAN_MOTION><ECCENTRICITY>.0002023</ECCENTRICITY><INCLINATION>87.9310</INCLINATION><RA_OF_ASC_NODE>9.2084</RA_OF_ASC_NODE><ARG_OF_PERICENTER>77.5005</ARG_OF_PERICENTER><MEAN_ANOMALY>282.6355</MEAN_ANOMALY></meanElements><tleParameters><EPHEMERIS_TYPE>0</EPHEMERIS_TYPE><CLASSIFICATION_TYPE>U</CLASSIFICATION_TYPE><NORAD_CAT_ID>49219</NORAD_CAT_ID><ELEMENT_SET_NO>999</ELEMENT_SET_NO><REV_AT_EPOCH>17394</REV_AT_EPOCH><BSTAR>-.11372E-3</BSTAR><MEAN_MOTION_DOT>-.33E-6</MEAN_MOTION_DOT><MEAN_MOTION_DDOT>0</MEAN_MOTION_DDOT></tleParameters></data></segment></body></omm>
<omm id="CCSDS_OMM_VERS" version="2.0">
<header><CREATION_DATE/><ORIGINATOR/></header><body><segment><metadata><OBJECT_NAME>ONEWEB-0332</OBJECT_NAME><OBJECT_ID>2021-090A</OBJECT_ID><CENTER_NAME>EARTH</CENTER_NAME><REF_FRAME>TEME</REF_FRAME><TIME_SYSTEM>UTC</TIME_SYSTEM><MEAN_ELEMENT_THEORY>SGP4</MEAN_ELEMENT_THEORY></metadata><data><meanElements><EPOCH>2025-02-25T22:47:30.902208</EPOCH><MEAN_MOTION>13.14502331</MEAN_MOTION><ECCENTRICITY>.0002124</ECCENTRICITY><INCLINATION>87.9036</INCLINATION><RA_OF_ASC_NODE>24.4079</RA_OF_ASC_NODE><ARG_OF_PERICENTER>89.2342</ARG_OF_PERICENTER><MEAN_ANOMALY>270.9032</MEAN_ANOMALY></meanElements><tleParameters><EPHEMERIS_TYPE>0</EPHEMERIS_TYPE><CLASSIFICATION_TYPE>U</CLASSIFICATION_TYPE><NORAD_CAT_ID>49279</NORAD_CAT_ID><ELEMENT_SET_NO>999</ELEMENT_SET_NO><REV_AT_EPOCH>16501</REV_AT_EPOCH><BSTAR>.26697E-3</BSTAR><MEAN_MOTION_DOT>.112E-5</MEAN_MOTION_DOT><MEAN_MOTION_DDOT>0</MEAN_MOTION_DDOT></tleParameters></data></segment></body></omm>
<omm id="CCSDS_OMM_VERS" version="2.0">
<header><CREATION_DATE/><ORIGINATOR/></header><body><segment><metadata><OBJECT_NAME>ONEWEB-0347</OBJECT_NAME><OBJECT_ID>2021-090B</OBJECT_ID><CENTER_NAME>EARTH</CENTER_NAME><REF_FRAME>TEME</REF_FRAME><TIME_SYSTEM>UTC</TIME_SYSTEM><MEAN_ELEMENT_THEORY>SGP4</MEAN_ELEMENT_THEORY></metadata><data><meanElements><EPOCH>2025-02-25T21:55:05.720160</EPOCH><MEAN_MOTION>13.20770802</MEAN_MOTION><ECCENTRICITY>.0002037</ECCENTRICITY><INCLINATION>87.9310</INCLINATION><RA_OF_ASC_NODE>9.2155</RA_OF_ASC_NODE><ARG_OF_PERICENTER>92.0038</ARG_OF_PERICENTER><MEAN_ANOMALY>268.1328</MEAN_ANOMALY></meanElements><tleParameters><EPHEMERIS_TYPE>0</EPHEMERIS_TYPE><CLASSIFICATION_TYPE>U</CLASSIFICATION_TYPE><NORAD_CAT_ID>49280</NORAD_CAT_ID><ELEMENT_SET_NO>999</ELEMENT_SET_NO><REV_AT_EPOCH>16817</REV_AT_EPOCH><BSTAR>-.41465E-4</BSTAR><MEAN_MOTION_DOT>-.4E-7</MEAN_MOTION_DOT><MEAN_MOTION_DDOT>0</MEAN_MOTION_DDOT></tleParameters></data></segment></body></omm>

</ndm>
