ONEWEB-0350             
1 49214U 21083AE  25056.93371472 -.00000213  00000+0 -61921-3 0  9997
2 49214  87.8891  54.8895 0001742  77.5537 282.5787 13.13470245168419
ONEWEB-0351             
1 49215U 21083AF  25056.90048492 -.00000152  00000+0 -40585-3 0  9993
2 49215  87.9307   9.2088 0002692  77.4235 282.7199 13.20769854173904
ONEWEB-0352             
1 49216U 21083AG  25056.91466010  .00000267  00000+0  69594-3 0  9991
2 49216  87.8895  54.9315 0002273  83.2128 276.9260 13.13471931169803
ONEWEB-0355             
1 49218U 21083AJ  25056.94482504 -.00000210  00000+0 -60919-3 0  9994
2 49218  87.8892  54.9243 0001963  81.9576 278.1775 13.13470143168380
ONEWEB-0357             
1 49219U 21083AK  25056.92273402 -.00000033  00000+0 -11372-3 0  9990
2 49219  87.9310   9.2084 0002023  77.5005 282.6355 13.20771495173943
ONEWEB-0332             
1 49279U 21090A   25056.94966322  .00000112  00000+0  26697-3 0  9998
2 49279  87.9036  24.4079 0002124  89.2342 270.9032 13.14502331165018
ONEWEB-0347             
1 49280U 21090B   25056.91326065 -.00000004  00000+0 -41465-4 0  9994
2 49280  87.9310   9.2155 0002037  92.0038 268.1328 13.20770802168172
